ASTROCAST 0.1           
1 43798U 18099AS  26204.20255672  .00043939  00000+0  73076-3 0  9994
2 43798  97.4364 283.8849 0005194 106.9007 253.2815 15.51920970420012
ASTROCAST-0402          
1 55109U 23001DE  26204.17167181  .00015193  00000+0  53849-3 0  9992
2 55109  97.5572 297.9225 0006604 112.8564 247.3373 15.29174416150034
ASTROCAST-0401          
1 55110U 23001DF  26204.18947273  .00020575  00000+0  73640-3 0  9994
2 55110  97.5558 297.7395 0009321  84.2464 275.9838 15.28767495196707
ASTROCAST-0403          
1 55111U 23001DG  26204.18613396  .00026922  00000+0  85418-3 0  9999
2 55111  97.5617 299.1096 0005296 185.7397 174.3785 15.32644597150072
ASTROCAST-0404          
1 55112U 23001DH  26204.20642750  .00008036  00000+0  28873-3 0  9997
2 55112  97.5663 298.8977 0005716 210.0293 150.0619 15.28911858150037
