{"fetched_at":"2026-07-23T17:55:18.685Z","source":"https://celestrak.org/NORAD/elements/gp.php?NAME=ASTROCAST&FORMAT=JSON","constellation":"astrocast","records":[{"OBJECT_NAME":"ASTROCAST 0.1","OBJECT_ID":"2018-099AS","EPOCH":"2026-07-23T04:51:40.900608","CLASSIFICATION_TYPE":"U","MEAN_MOTION":15.5192097,"ECCENTRICITY":0.00051949,"INCLINATION":97.4364,"RA_OF_ASC_NODE":283.8849,"ARG_OF_PERICENTER":106.9007,"MEAN_ANOMALY":253.2815,"EPHEMERIS_TYPE":0,"NORAD_CAT_ID":43798,"ELEMENT_SET_NO":999,"REV_AT_EPOCH":42001,"BSTAR":0.00073076182,"MEAN_MOTION_DOT":0.00043939,"MEAN_MOTION_DDOT":0},{"OBJECT_NAME":"ASTROCAST-0402","OBJECT_ID":"2023-001DE","EPOCH":"2026-07-23T04:07:12.444384","CLASSIFICATION_TYPE":"U","MEAN_MOTION":15.29174416,"ECCENTRICITY":0.00066048,"INCLINATION":97.5572,"RA_OF_ASC_NODE":297.9225,"ARG_OF_PERICENTER":112.8564,"MEAN_ANOMALY":247.3373,"EPHEMERIS_TYPE":0,"NORAD_CAT_ID":55109,"ELEMENT_SET_NO":999,"REV_AT_EPOCH":15003,"BSTAR":0.00053849416,"MEAN_MOTION_DOT":0.00015193,"MEAN_MOTION_DDOT":0},{"OBJECT_NAME":"ASTROCAST-0401","OBJECT_ID":"2023-001DF","EPOCH":"2026-07-23T04:32:50.443872","CLASSIFICATION_TYPE":"U","MEAN_MOTION":15.28767495,"ECCENTRICITY":0.00093214,"INCLINATION":97.5558,"RA_OF_ASC_NODE":297.7395,"ARG_OF_PERICENTER":84.2464,"MEAN_ANOMALY":275.9838,"EPHEMERIS_TYPE":0,"NORAD_CAT_ID":55110,"ELEMENT_SET_NO":999,"REV_AT_EPOCH":19670,"BSTAR":0.00073640269,"MEAN_MOTION_DOT":0.00020575,"MEAN_MOTION_DDOT":0},{"OBJECT_NAME":"ASTROCAST-0403","OBJECT_ID":"2023-001DG","EPOCH":"2026-07-23T04:28:01.974144","CLASSIFICATION_TYPE":"U","MEAN_MOTION":15.32644597,"ECCENTRICITY":0.00052969,"INCLINATION":97.5617,"RA_OF_ASC_NODE":299.1096,"ARG_OF_PERICENTER":185.7397,"MEAN_ANOMALY":174.3785,"EPHEMERIS_TYPE":0,"NORAD_CAT_ID":55111,"ELEMENT_SET_NO":999,"REV_AT_EPOCH":15007,"BSTAR":0.00085418307,"MEAN_MOTION_DOT":0.00026922,"MEAN_MOTION_DDOT":0},{"OBJECT_NAME":"ASTROCAST-0404","OBJECT_ID":"2023-001DH","EPOCH":"2026-07-23T04:57:15.336000","CLASSIFICATION_TYPE":"U","MEAN_MOTION":15.28911858,"ECCENTRICITY":0.00057166,"INCLINATION":97.5663,"RA_OF_ASC_NODE":298.8977,"ARG_OF_PERICENTER":210.0293,"MEAN_ANOMALY":150.0619,"EPHEMERIS_TYPE":0,"NORAD_CAT_ID":55112,"ELEMENT_SET_NO":999,"REV_AT_EPOCH":15003,"BSTAR":0.00028873175,"MEAN_MOTION_DOT":0.00008036,"MEAN_MOTION_DDOT":0}]}
